{"type": "FeatureCollection", "features": [ {"type": "Feature", "properties": {"norad_id": 66799, "name": "STARLINK-36044", "group": "last-30-days", "lat": -14.329560808284825, "lon": 24.21037179917392, "alt_km": 416.34214179003266, "timestamp": "2025-12-23T07:45:08.116549+00:00", "meta": {"OBJECT_NAME": "STARLINK-36044", "OBJECT_ID": "2025-278J", "EPOCH": "2025-12-22T22:00:03.000096", "MEAN_MOTION": 15.51588253, "ECCENTRICITY": 0.00016581, "INCLINATION": 42.9995, "RA_OF_ASC_NODE": 190.6785, "ARG_OF_PERICENTER": 254.5546, "MEAN_ANOMALY": 195.336, "EPHEMERIS_TYPE": 0, "CLASSIFICATION_TYPE": "U", "NORAD_CAT_ID": 66799, "ELEMENT_SET_NO": 999, "REV_AT_EPOCH": 459, "BSTAR": -0.025806522, "MEAN_MOTION_DOT": -0.0140706, "MEAN_MOTION_DDOT": 0}, "tle": {"line1": "1 66799U 25278J   25356.91670139 -.01407060  00000+0 -25807-1 0  9990", "line2": "2 66799  42.9995 190.6785 0001658 254.5546 195.3360 15.51588253  4592"}}, "geometry": {"type": "Point", "coordinates": [24.21037179917392, -14.329560808284825]}}, {"type": "Feature", "properties": {"norad_id": 66800, "name": "STARLINK-35996", "group": "last-30-days", "lat": -16.822705641434418, "lon": 27.223521818637074, "alt_km": 416.72965114525596, "timestamp": "2025-12-23T07:45:08.116559+00:00", "meta": {"OBJECT_NAME": "STARLINK-35996", "OBJECT_ID": "2025-278K", "EPOCH": "2025-12-22T22:00:03.000096", "MEAN_MOTION": 15.51592238, "ECCENTRICITY": 0.00018758, "INCLINATION": 42.9994, "RA_OF_ASC_NODE": 190.6686, "ARG_OF_PERICENTER": 268.7878, "MEAN_ANOMALY": 184.9344, "EPHEMERIS_TYPE": 0, "CLASSIFICATION_TYPE": "U", "NORAD_CAT_ID": 66800, "ELEMENT_SET_NO": 999, "REV_AT_EPOCH": 438, "BSTAR": -0.025737276, "MEAN_MOTION_DOT": -0.01403945, "MEAN_MOTION_DDOT": 0}, "tle": {"line1": "1 66800U 25278K   25356.91670139 -.01403945  00000+0 -25737-1 0  9993", "line2": "2 66800  42.9994 190.6686 0001875 268.7878 184.9344 15.51592238  4381"}}, "geometry": {"type": "Point", "coordinates": [27.223521818637074, -16.822705641434418]}}, {"type": "Feature", "properties": {"norad_id": 66801, "name": "STARLINK-36080", "group": "last-30-days", "lat": -22.833944054866397, "lon": 35.12753378985125, "alt_km": 416.93234902886525, "timestamp": "2025-12-23T07:45:08.116569+00:00", "meta": {"OBJECT_NAME": "STARLINK-36080", "OBJECT_ID": "2025-278L", "EPOCH": "2025-12-22T22:00:03.000096", "MEAN_MOTION": 15.51607749, "ECCENTRICITY": 0.00021193, "INCLINATION": 42.9993, "RA_OF_ASC_NODE": 190.6427, "ARG_OF_PERICENTER": 265.5262, "MEAN_ANOMALY": 197.7851, "EPHEMERIS_TYPE": 0, "CLASSIFICATION_TYPE": "U", "NORAD_CAT_ID": 66801, "ELEMENT_SET_NO": 999, "REV_AT_EPOCH": 459, "BSTAR": -0.026564097, "MEAN_MOTION_DOT": -0.01445128, "MEAN_MOTION_DDOT": 0}, "tle": {"line1": "1 66801U 25278L   25356.91670139 -.01445128  00000+0 -26564-1 0  9992", "line2": "2 66801  42.9993 190.6427 0002119 265.5262 197.7851 15.51607749  4590"}}, "geometry": {"type": "Point", "coordinates": [35.12753378985125, -22.833944054866397]}}, {"type": "Feature", "properties": {"norad_id": 66802, "name": "STARLINK-35604", "group": "last-30-days", "lat": -15.577979948820333, "lon": 25.702940268200624, "alt_km": 416.42977861107556, "timestamp": "2025-12-23T07:45:08.116579+00:00", "meta": {"OBJECT_NAME": "STARLINK-35604", "OBJECT_ID": "2025-278M", "EPOCH": "2025-12-22T22:00:03.000096", "MEAN_MOTION": 15.51604303, "ECCENTRICITY": 0.00021752, "INCLINATION": 42.9994, "RA_OF_ASC_NODE": 190.6727, "ARG_OF_PERICENTER": 261.6902, "MEAN_ANOMALY": 190.1153, "EPHEMERIS_TYPE": 0, "CLASSIFICATION_TYPE": "U", "NORAD_CAT_ID": 66802, "ELEMENT_SET_NO": 999, "REV_AT_EPOCH": 459, "BSTAR": -0.026343432, "MEAN_MOTION_DOT": -0.01434246, "MEAN_MOTION_DDOT": 0}, "tle": {"line1": "1 66802U 25278M   25356.91670139 -.01434246  00000+0 -26343-1 0  9997", "line2": "2 66802  42.9994 190.6727 0002175 261.6902 190.1153 15.51604303  4590"}}, "geometry": {"type": "Point", "coordinates": [25.702940268200624, -15.577979948820333]}}, {"type": "Feature", "properties": {"norad_id": 66803, "name": "STARLINK-35565", "group": "last-30-days", "lat": -18.049301362862785, "lon": 28.754255307538816, "alt_km": 416.4969987311961, "timestamp": "2025-12-23T07:45:08.116589+00:00", "meta": {"OBJECT_NAME": "STARLINK-35565", "OBJECT_ID": "2025-278N", "EPOCH": "2025-12-22T22:00:03.000096", "MEAN_MOTION": 15.51600165, "ECCENTRICITY": 0.00021882, "INCLINATION": 42.9994, "RA_OF_ASC_NODE": 190.6631, "ARG_OF_PERICENTER": 259.3252, "MEAN_ANOMALY": 196.3154, "EPHEMERIS_TYPE": 0, "CLASSIFICATION_TYPE": "U", "NORAD_CAT_ID": 66803, "ELEMENT_SET_NO": 999, "REV_AT_EPOCH": 468, "BSTAR": -0.026219839, "MEAN_MOTION_DOT": -0.01428033, "MEAN_MOTION_DDOT": 0}, "tle": {"line1": "1 66803U 25278N   25356.91670139 -.01428033  00000+0 -26220-1 0  9999", "line2": "2 66803  42.9994 190.6631 0002188 259.3252 196.3154 15.51600165  4682"}}, "geometry": {"type": "Point", "coordinates": [28.754255307538816, -18.049301362862785]}}, {"type": "Feature", "properties": {"norad_id": 66804, "name": "STARLINK-36038", "group": "last-30-days", "lat": -19.271306898206856, "lon": 30.318024678460958, "alt_km": 416.82569248407435, "timestamp": "2025-12-23T07:45:08.116604+00:00", "meta": {"OBJECT_NAME": "STARLINK-36038", "OBJECT_ID": "2025-278P", "EPOCH": "2025-12-22T22:00:03.000096", "MEAN_MOTION": 15.51597629, "ECCENTRICITY": 0.00017053, "INCLINATION": 42.9993, "RA_OF_ASC_NODE": 190.6591, "ARG_OF_PERICENTER": 264.4798, "MEAN_ANOMALY": 193.0723, "EPHEMERIS_TYPE": 0, "CLASSIFICATION_TYPE": "U", "NORAD_CAT_ID": 66804, "ELEMENT_SET_NO": 999, "REV_AT_EPOCH": 459, "BSTAR": -0.025853669, "MEAN_MOTION_DOT": -0.01409816, "MEAN_MOTION_DDOT": 0}, "tle": {"line1": "1 66804U 25278P   25356.91670139 -.01409816  00000+0 -25854-1 0  9990", "line2": "2 66804  42.9993 190.6591 0001705 264.4798 193.0723 15.51597629  4599"}}, "geometry": {"type": "Point", "coordinates": [30.318024678460958, -19.271306898206856]}}, {"type": "Feature", "properties": {"norad_id": 66805, "name": "STARLINK-36049", "group": "last-30-days", "lat": -21.660473722197025, "lon": 33.49608574705176, "alt_km": 416.7554392067186, "timestamp": "2025-12-23T07:45:08.116615+00:00", "meta": {"OBJECT_NAME": "STARLINK-36049", "OBJECT_ID": "2025-278Q", "EPOCH": "2025-12-22T22:00:03.000096", "MEAN_MOTION": 15.51604658, "ECCENTRICITY": 0.00021662, "INCLINATION": 42.9993, "RA_OF_ASC_NODE": 190.6476, "ARG_OF_PERICENTER": 261.8849, "MEAN_ANOMALY": 199.5062, "EPHEMERIS_TYPE": 0, "CLASSIFICATION_TYPE": "U", "NORAD_CAT_ID": 66805, "ELEMENT_SET_NO": 999, "REV_AT_EPOCH": 459, "BSTAR": -0.026362581, "MEAN_MOTION_DOT": -0.01435192, "MEAN_MOTION_DDOT": 0}, "tle": {"line1": "1 66805U 25278Q   25356.91670139 -.01435192  00000+0 -26363-1 0  9993", "line2": "2 66805  42.9993 190.6476 0002166 261.8849 199.5062 15.51604658  4590"}}, "geometry": {"type": "Point", "coordinates": [33.49608574705176, -21.660473722197025]}}, {"type": "Feature", "properties": {"norad_id": 66806, "name": "STARLINK-36069", "group": "last-30-days", "lat": -20.471731832648768, "lon": 31.892219005635983, "alt_km": 416.84424833521007, "timestamp": "2025-12-23T07:45:08.116624+00:00", "meta": {"OBJECT_NAME": "STARLINK-36069", "OBJECT_ID": "2025-278R", "EPOCH": "2025-12-22T22:00:03.000096", "MEAN_MOTION": 15.51617897, "ECCENTRICITY": 0.00020774, "INCLINATION": 42.9995, "RA_OF_ASC_NODE": 190.653, "ARG_OF_PERICENTER": 265.4039, "MEAN_ANOMALY": 194.0685, "EPHEMERIS_TYPE": 0, "CLASSIFICATION_TYPE": "U", "NORAD_CAT_ID": 66806, "ELEMENT_SET_NO": 999, "REV_AT_EPOCH": 438, "BSTAR": -0.026823091, "MEAN_MOTION_DOT": -0.01458175, "MEAN_MOTION_DDOT": 0}, "tle": {"line1": "1 66806U 25278R   25356.91670139 -.01458175  00000+0 -26823-1 0  9991", "line2": "2 66806  42.9995 190.6530 0002077 265.4039 194.0685 15.51617897  4383"}}, "geometry": {"type": "Point", "coordinates": [31.892219005635983, -20.471731832648768]}}, {"type": "Feature", "properties": {"norad_id": 66807, "name": "STARLINK-36000", "group": "last-30-days", "lat": -23.994122713747092, "lon": 36.794540196772125, "alt_km": 417.1630826215887, "timestamp": "2025-12-23T07:45:08.116635+00:00", "meta": {"OBJECT_NAME": "STARLINK-36000", "OBJECT_ID": "2025-278S", "EPOCH": "2025-12-22T22:00:03.000096", "MEAN_MOTION": 15.51597969, "ECCENTRICITY": 0.00017014, "INCLINATION": 42.9993, "RA_OF_ASC_NODE": 190.6397, "ARG_OF_PERICENTER": 268.8178, "MEAN_ANOMALY": 196.4037, "EPHEMERIS_TYPE": 0, "CLASSIFICATION_TYPE": "U", "NORAD_CAT_ID": 66807, "ELEMENT_SET_NO": 999, "REV_AT_EPOCH": 465, "BSTAR": -0.025883759, "MEAN_MOTION_DOT": -0.01411301, "MEAN_MOTION_DDOT": 0}, "tle": {"line1": "1 66807U 25278S   25356.91670139 -.01411301  00000+0 -25884-1 0  9998", "line2": "2 66807  42.9993 190.6397 0001701 268.8178 196.4037 15.51597969  4651"}}, "geometry": {"type": "Point", "coordinates": [36.794540196772125, -23.994122713747092]}}, {"type": "Feature", "properties": {"norad_id": 66808, "name": "STARLINK-36071", "group": "last-30-days", "lat": -25.13152987118791, "lon": 38.48317662758092, "alt_km": 417.2062915756287, "timestamp": "2025-12-23T07:45:08.116646+00:00", "meta": {"OBJECT_NAME": "STARLINK-36071", "OBJECT_ID": "2025-278T", "EPOCH": "2025-12-22T22:00:03.000096", "MEAN_MOTION": 15.51594311, "ECCENTRICITY": 0.00017931, "INCLINATION": 42.9995, "RA_OF_ASC_NODE": 190.635, "ARG_OF_PERICENTER": 270.2785, "MEAN_ANOMALY": 196.8625, "EPHEMERIS_TYPE": 0, "CLASSIFICATION_TYPE": "U", "NORAD_CAT_ID": 66808, "ELEMENT_SET_NO": 999, "REV_AT_EPOCH": 459, "BSTAR": -0.025803593, "MEAN_MOTION_DOT": -0.0140725, "MEAN_MOTION_DDOT": 0}, "tle": {"line1": "1 66808U 25278T   25356.91670139 -.01407250  00000+0 -25804-1 0  9999", "line2": "2 66808  42.9995 190.6350 0001793 270.2785 196.8625 15.51594311  4593"}}, "geometry": {"type": "Point", "coordinates": [38.48317662758092, -25.13152987118791]}}]}